INS-1C                  
1 43116U 18004F   19091.12172951  .00001037  00000-0  47218-4 0  9993
2 43116  97.5009 159.1345 0010477 152.9758 207.2026 15.22928117 67540
FLOCK 3P'-3             
1 43119U 18004J   19091.21453017  .00000713  00000-0  33662-4 0  9999
2 43119  97.4983 158.9234 0011066 158.9776 201.1917 15.22683295 67534
FLOCK 3P'-2             
1 43120U 18004K   19090.89516710  .00000603  00000-0  28993-4 0  9993
2 43120  97.4984 158.5853 0010973 159.9542 200.2127 15.22605652 67486
FLOCK 3P'-1             
1 43121U 18004L   19091.51563464  .00001611  00000-0  71443-4 0  9990
2 43121  97.4980 159.2759 0010993 157.6594 202.5123 15.23030756 67513
FLOCK 3P'-4             
1 43122U 18004M   19090.89216609  .00000161  00000-0  10015-4 0  9994
2 43122  97.4988 158.6055 0010836 161.8994 198.2630 15.22583519 67480
PICSAT                  
1 43131U 18004W   19090.95129276  .00001656  00000-0  71712-4 0  9995
2 43131  97.4965 159.0616 0010114 161.1467 199.0146 15.23798967 67522
PICSAT                  
1 43132U 18004X   19090.95079038  .00001139  00000-0  50935-4 0  9996
2 43132  97.4959 158.9021 0010345 162.0133 198.1471 15.23341811 67512
SIGMA (KHUSAT-03)       
1 43134U 18004Z   19090.88841312  .00000996  00000-0  45010-4 0  9990
2 43134  97.4958 158.8326 0010120 162.5563 197.6023 15.23272394 67508
FOX-1D (AO-92)          
1 43137U 18004AC  19090.93792232  .00000891  00000-0  40576-4 0  9991
2 43137  97.4951 158.8929 0009823 163.3551 196.8009 15.23281740 67518
STEP-1                  
1 43138U 18004AD  19090.98713718  .00001404  00000-0  61257-4 0  9999
2 43138  97.4963 159.1675 0009709 163.6788 196.4763 15.23802384 67530
XIAOXIANG-2 (TY-2)      
1 43155U 18008A   19091.47823182  .00001058  00000-0  67037-4 0  9991
2 43155  97.4928 165.6462 0016506 229.3807 252.9919 15.11003100 66010
ZHOU ENLAI (HA-1)       
1 43156U 18008B   19091.49995152  .00000596  00000-0  40010-4 0  9999
2 43156  97.4961 165.5741 0013533 228.1681 256.8228 15.10494334 65995
QUANTUTONG 1 (QTT 1)    
1 43158U 18008D   19091.17453691  .00000323  00000-0  23686-4 0  9991
2 43158  97.4937 164.8277 0012730 226.8437 156.6539 15.10111877 65910
S-NET A (DP0TBB)        
1 43186U 18014G   19091.33405420 -.00000114  00000-0 -48837-5 0  9990
2 43186  97.7138   0.9087 0009740 268.4598  91.5508 14.96600769 63415
S-NET B (DP0TBC)        
1 43187U 18014H   19091.53446479 -.00000084  00000-0 -22588-5 0  9993
2 43187  97.7136   1.0966 0009743 267.5389  92.4717 14.96600722 63447
S-NET C (DP0TBD)        
1 43188U 18014J   19091.46738302 -.00000112  00000-0 -47068-5 0  9997
2 43188  97.7139   1.0446 0009738 267.9039  92.1067 14.96600911 63438
S-NET D (DP0TBE)        
1 43189U 18014K   19091.53456431 -.00000080  00000-0 -18969-5 0  9998
2 43189  97.7136   1.0945 0009739 267.5136  92.4970 14.96600313 61996
FENGMANIU 1 (FMN-1)     
1 43192U 18015A   19090.94212251  .00002009  00000-0  85867-4 0  9998
2 43192  97.3862 219.7657 0015658 205.8054 154.2401 15.23921660 64329
SHAONIAN XING           
1 43199U 18015H   19091.24418229  .00001509  00000-0  64062-4 0  9990
2 43199  97.3643 219.3487 0016088 217.5757 142.4361 15.24522873 64416
1KUNS-PF (1KUNS)        
1 43466U 98067NP  19091.16998262  .00018340  00000-0  20201-3 0  9990
2 43466  51.6395  12.1622 0001656 124.6491 235.4660 15.63182981 50626
UBAKUSAT                
1 43467U 98067NQ  19091.16410657  .00011516  00000-0  14089-3 0  9993
2 43467  51.6392  14.3677 0003383 123.1226 237.0092 15.60899416 50607
IRAZU                   
1 43468U 98067NR  19090.25361599  .00022251  00000-0  22763-3 0  9999
2 43468  51.6388  15.0342 0001752 121.4154 238.7013 15.64928560150495
ENDUROSAT ONE           
1 43551U 98067NZ  19090.92040979  .00013080  00000-0  16138-3 0  9991
2 43551  51.6395  17.9846 0005576 197.6401 162.4399 15.60526600 40767
EQUISAT                 
1 43552U 98067PA  19091.16959648  .00011180  00000-0  14308-3 0  9997
2 43552  51.6406  17.4077 0005931 199.6438 160.4328 15.59734733 40754
UITMSAT-1 (JG6YKN)      
1 43589U 98067PD  19091.17273136  .00012794  00000-0  16350-3 0  9990
2 43589  51.6382  18.1515 0005024 206.8580 153.2153 15.59620625 36489
MAYA-1 (JG6YKM)         
1 43590U 98067PE  19091.16886924  .00013149  00000-0  16771-3 0  9998
2 43590  51.6383  18.1284 0005240 206.8626 153.2096 15.59643852 36412
BHUTAN-1 (JG6YKL)       
1 43591U 98067PF  19090.84190316  .00014246  00000-0  18084-3 0  9994
2 43591  51.6397  19.7042 0005261 207.3104 152.7613 15.59688708 36369
SIRIUSSAT-1 (RS13S)     
1 43595U 98067PG  19090.85547348  .00011684  00000-0  15330-3 0  9994
2 43595  51.6382  20.5330 0003926 156.2247 203.8927 15.59023128 35536
SIRIUSSAT-2 (RS14S)     
1 43596U 98067PH  19090.87765619  .00012475  00000-0  16421-3 0  9991
2 43596  51.6393  20.7052 0004470 159.3603 200.7571 15.58861900 35535
TANUSHA-3               
1 43597U 98067PJ  19091.19572482  .00016395  00000-0  20583-3 0  9991
2 43597  51.6380  18.2850 0003752 169.8594 190.2476 15.59857003 35590
TANUSHA-4               
1 43598U 98067PK  19090.87812769  .00016033  00000-0  20104-3 0  9999
2 43598  51.6387  19.9252 0004058 167.2783 192.8313 15.59907669 35541
SURFSAT                 
1 43614U 18070B   19091.09605930  .00002065  00000-0  56892-4 0  9993
2 43614  93.0331 331.2357 0013663 245.3115 114.6716 15.37149819 30336
CP 7 (DAVE)             
1 43615U 18070C   19091.09838660  .00001912  00000-0  52800-4 0  9997
2 43615  93.0332 331.2381 0013770 245.4231 114.5588 15.37096945 30331
ELFIN-B (ELFIN-STAR)    
1 43616U 18070D   19090.87318711  .00002997  00000-0  81439-4 0  9997
2 43616  93.0294 331.0724 0014505 250.3072 109.6616 15.37537263 30300
ELFIN-A (WJ2XNX)        
1 43617U 18070E   19091.12915843  .00002984  00000-0  81039-4 0  9998
2 43617  93.0349 331.3320 0013644 245.2667 114.7167 15.37568895 30340
STARS-ME (JJ2YPL)       
1 43640U 98067PQ  19090.90942262  .00007892  00000-0  11332-3 0  9999
2 43640  51.6400  22.4071 0006012 153.2756 206.8546 15.57127951 27440
CUBEBEL-1 (BSUSAT-1)    
1 43666U 18083E   19091.49095068  .00000911  00000-0  48871-4 0  9999
2 43666  97.5283 116.4829 0017161  99.2261  42.5572 15.17393742 23425
CHANGSHAGAOXIN (TY 4-01)
1 43669U 18083H   19090.94529610  .00000811  00000-0  44862-4 0  9991
2 43669  97.5136 115.4826 0012757  94.0305 266.2387 15.16649012 23296
TEN-KOH (JG6YKY)        
1 43677U 18084G   19090.79024080 -.00000103  00000-0 -47642-5 0  9991
2 43677  97.8399 205.0828 0016377 176.9369 183.1970 14.90136879 22869
DIWATA-2                
1 43678U 18084H   19091.51784857 -.00000304  00000-0 -24618-4 0  9998
2 43678  97.8403 206.1491 0009288 193.9994 166.0954 14.91533175 22997
STARS-AO (JJ2YSY)       
1 43679U 18084J   19090.73702565  .00000781  00000-0  82681-4 0  9999
2 43679  97.8440 205.5306 0009224 200.7883 159.3031 14.91980009 22882
IRVINE-01               
1 43693U 18088D   19091.53270554  .00002141  00000-0  94205-4 0  9993
2 43693  85.0396   9.7172 0020726 116.3513 243.9860 15.21016059 21488
GSLV R/B                
1 43699U 18089B   19086.26049318  .00000046 -21552-6  00000+0 0  9995
2 43699  21.5010 113.2159 7144554 275.2838  14.0182  2.52309100  3101
ES'HAIL 2               
1 43700U 18090A   19091.09999373  .00000130  00000-0  00000+0 0  9994
2 43700   0.0209 136.3973 0001754 278.3557 196.2201  1.00273085  1506
FACSAT 1                
1 43721U 18096C   19091.51540400  .00001208  00000-0  49715-4 0  9991
2 43721  97.4667 161.4926 0016762 242.9548 116.9980 15.26021424 18812
CENTAURI-2              
1 43722U 18096D   19091.50593089  .00001654  00000-0  66645-4 0  9998
2 43722  97.4664 161.5045 0016899 243.7304 116.2198 15.26190373 18806
INNOSAT 2               
1 43738U 18096V   19091.47843728  .00002297  00000-0  85714-4 0  9991
2 43738  97.4667 161.8461 0023217 257.4129 102.4513 15.28224217 18838
REAKTOR HELLO WORLD     
1 43743U 18096AA  19091.44004640  .00001079  00000-0  44209-4 0  9997
2 43743  97.4668 161.5029 0016671 250.0331 232.5933 15.26397987 18791
AISTECHSAT 2            
1 43768U 18099L   19091.53150717  .00000266  00000-0  30003-4 0  9998
2 43768  97.7497 164.3154 0010655 218.8587 141.1868 14.94468866 17466
FOX-1C (FOX-1CLIFF)     
1 43770U 18099N   19090.91094163 -.00000141  00000-0 -76848-5 0  9996
2 43770  97.7515 163.7645 0013492 232.9353 127.0634 14.94706031 17652
RANGE A                 
1 43772U 18099Q   19091.50757927  .00000046  00000-0  95256-5 0  9994
2 43772  97.7565 164.4417 0013404 216.9689 143.0609 14.94795553 17737
RANGE B                 
1 43773U 18099R   19091.17378806 -.00000161  00000-0 -94806-5 0  9993
2 43773  97.7462 163.9617 0012682 218.1709 141.8615 14.94759250 17685
MOVE-II (DP0MVE)        
1 43780U 18099Y   19090.89243870  .00000571  00000-0  57511-4 0  9995
2 43780  97.7503 163.7622 0012491 230.0373 129.9751 14.94963395 17631
SNUSAT-2                
1 43782U 18099AA  19091.15555165  .00000519  00000-0  52686-4 0  9990
2 43782  97.7511 164.0534 0011904 217.4203 142.6189 14.94997578 17689
SNUGLITE (DS0DH)        
1 43784U 18099AC  19090.74810489  .00000678  00000-0  67125-4 0  9999
2 43784  97.7476 163.6095 0014079 228.2619 131.7399 14.95071732 17638
ITASAT 1 (ITASAT-14)    
1 43786U 18099AE  19091.28212794  .00000642  00000-0  63760-4 0  9998
2 43786  97.7529 164.2244 0014209 225.2558 134.7507 14.95086138 17715
SSO-A MYSTERY-3         
1 43787U 18099AF  19090.74418540  .00000879  00000-0  85223-4 0  9996
2 43787  97.7424 163.5386 0013336 224.7142 135.3004 14.95145292 17639
EAGLET-I                
1 43790U 18099AJ  19091.18486149 -.00000204  00000-0 -13198-4 0  9995
2 43790  97.7518 164.1835 0012445 231.4030 128.6077 14.95460990 17397
ESEO (FUNCUBE 4)        
1 43792U 18099AL  19090.78123679 -.00000380  00000-0 -29099-4 0  9990
2 43792  97.7499 163.7644 0012224 229.8047 130.2105 14.95479184 17390
CSIM-FD                 
1 43793U 18099AM  19090.90961821 -.00000025  00000-0  29736-5 0  9998
2 43793  97.7458 163.8192 0012168 225.9990 134.0228 14.95594117 17387
